[{"OBJECT_NAME":"STARLINK-34973","OBJECT_ID":"2025-179R","EPOCH":"2026-03-09T16:46:12.908928","MEAN_MOTION":15.05653681,"ECCENTRICITY":9.931e-5,"INCLINATION":97.6024,"RA_OF_ASC_NODE":113.0365,"ARG_OF_PERICENTER":114.3648,"MEAN_ANOMALY":245.7682,"EPHEMERIS_TYPE":0,"CLASSIFICATION_TYPE":"U","NORAD_CAT_ID":65250,"ELEMENT_SET_NO":999,"REV_AT_EPOCH":3181,"BSTAR":0.00019660226,"MEAN_MOTION_DOT":2.777e-5,"MEAN_MOTION_DDOT":0},{"OBJECT_NAME":"FENGYUN 1C DEB","OBJECT_ID":"1999-025AZA","EPOCH":"2026-03-09T00:58:11.092224","MEAN_MOTION":14.92309795,"ECCENTRICITY":0.00550776,"INCLINATION":98.9912,"RA_OF_ASC_NODE":286.2715,"ARG_OF_PERICENTER":182.0101,"MEAN_ANOMALY":178.0901,"EPHEMERIS_TYPE":0,"CLASSIFICATION_TYPE":"U","NORAD_CAT_ID":30912,"ELEMENT_SET_NO":999,"REV_AT_EPOCH":687,"BSTAR":0.0018683847,"MEAN_MOTION_DOT":0.00019628,"MEAN_MOTION_DDOT":0}]
